[{"OBJECT_NAME":"STARLINK-5506","OBJECT_ID":"2023-021Z","EPOCH":"2026-03-09T17:15:17.335296","MEAN_MOTION":14.98328506,"ECCENTRICITY":0.00031126,"INCLINATION":70.0012,"RA_OF_ASC_NODE":184.4684,"ARG_OF_PERICENTER":261.3518,"MEAN_ANOMALY":98.7288,"EPHEMERIS_TYPE":0,"CLASSIFICATION_TYPE":"U","NORAD_CAT_ID":55651,"ELEMENT_SET_NO":999,"REV_AT_EPOCH":16879,"BSTAR":-3.9269418e-5,"MEAN_MOTION_DOT":-5.62e-6,"MEAN_MOTION_DDOT":0},{"OBJECT_NAME":"CZ-6A DEB","OBJECT_ID":"2022-151QF","EPOCH":"2026-03-08T03:18:15.836256","MEAN_MOTION":14.86025729,"ECCENTRICITY":0.00611616,"INCLINATION":98.6168,"RA_OF_ASC_NODE":140.6535,"ARG_OF_PERICENTER":185.9517,"MEAN_ANOMALY":174.0977,"EPHEMERIS_TYPE":0,"CLASSIFICATION_TYPE":"U","NORAD_CAT_ID":54894,"ELEMENT_SET_NO":999,"REV_AT_EPOCH":17291,"BSTAR":0.0053316953,"MEAN_MOTION_DOT":0.00048472,"MEAN_MOTION_DDOT":0}]
